#dP2020 12 31  0  0  0.00000000     289 ORBIT ITRF  BHN ESOC                    
## 2138 345600.00000000   300.00000000 59214 0.0000000000000                    
+  110   G13G28G21G22G07G05G20G31G17G15G16G29G12G19G02G25G01                    
+        G30G24G27G06G09G03G32G26G08G10G04G18G23G14R09R11R20                    
+        R19R13R01R22R16R08R03R07R02R17R14R18R21R05R15R12R04                    
+        R24E11E12E19E18E14E26E24E30E08E09E01E02E07E03E04E05                    
+        E21E25E27E31E36E13E15E33C11C12C14C19C20C27C28C22C21                    
+        C29C30C23C24C26C25C32C33C35C34C36C37C06C07C08C09C10                    
+        C13C16C38C39C40J01J02J03  0  0  0  0  0  0  0  0  0                    
++         5  5  5  5  5  5  5  5  5  5  5  5  5  5  5  5  4                    
++         5  5  4  5  5  5  5  5  5  5  5  4  5  5  5  5  6                    
++         7  5  5  6  5  5  5  6  5  5  5  5  4  5  5  5  5                    
++         5  5  5  6  5  5  4  5  5  5  5  5  6  5  5  5  5                    
++         5  5  5  5  5  4  5  4  6  5  7  6  6  6  6  5  6                    
++         5  5  5  6  5  6  6  6  5  6  6  6  6  7  7  7  7                    
++         7  6  8  8  8  7  6  7  0  0  0  0  0  0  0  0  0                    
%c M  cc GPS ccc cccc cccc cccc cccc ccccc ccccc ccccc ccccc                    
%c cc cc ccc ccc cccc cccc cccc cccc ccccc ccccc ccccc ccccc                    
%f  0.0000000  0.000000000  0.00000000000  0.000000000000000                    
%f  0.0000000  0.000000000  0.00000000000  0.000000000000000                    
%i    0    0    0    0      0      0      0      0         0                    
%i    0    0    0    0      0      0      0      0         0                    
/* CCCCCCCCCCCCCCCCCCCCCCCCCCCCCCCCCCCCCCCCCCCCCCCCCCCCCCCCCCCCCCCCCCCCCCCCCCCCC
/* CCCCCCCCCCCCCCCCCCCCCCCCCCCCCCCCCCCCCCCCCCCCCCCCCCCCCCCCCCCCCCCCCCCCCCCCCCCCC
/* CCCCCCCCCCCCCCCCCCCCCCCCCCCCCCCCCCCCCCCCCCCCCCCCCCCCCCCCCCCCCCCCCCCCCCCCCCCCC
/* PCV:IGS        OL/AL:EOT11A   NONE     YN ORB:CoN CLK:CoN                    
*  2020 12 31 12 25  0.00000000                                                 
PG13  15532.646956   -494.723167  21417.011983     80.827480                    
PG28  17680.054063  12974.937498  15420.620784    636.002510                    
PG21 -17248.785639  17959.773997   9375.394439     82.625363                    
PG22 -19641.247398  11129.348914 -13667.892824   -706.296066                    
PG07  -2471.560903  22300.610969  14150.946161      3.588112                    
PG05  25990.613662  -3204.122625   4843.710346    -29.765318                    
PG20  -5873.182949 -14999.213822  21084.585767    525.374017                    
PG31 -14480.572204  -5791.780506 -21608.674035    -91.000025                    
PG17  14378.503150  21174.472612  -6681.570255    374.223132                    
PG15   9582.048744 -13258.616982  20515.339658   -179.536021                    
PG16 -26378.871872   -426.072290   4535.025714   -258.261946                    
PG29  -2887.407194 -24207.996921 -10525.561604   -266.719329                    
PG12  16079.709963 -10695.362325 -18404.681862     19.401054                    
PG19  16364.718648  15779.352660 -14085.091294    -58.095348                    
PG02  17860.736867  -7158.098840 -17651.796822   -560.721378                    
PG25   1325.620909 -15228.474270 -21963.703406     50.410988                    
PG01 -14194.264467  22230.474731   -293.407825    787.765604                    
PG30   6693.667247  16217.320630  19928.136233   -361.357918                    
PG24  15232.048827 -20978.820605   4473.851033      4.359511                    
PG27 -16806.529610  -2476.451900  20360.401599    -46.351324                    
PG06  12205.552471   8226.173169 -22044.912540     -4.577673                    
PG09   5482.843243  24214.758480  -9469.536977   -307.636953                    
PG03 -12106.950480  13071.417130 -19746.873757    -44.123930                    
PG32 -16280.543044 -19775.537403  -7247.021278     11.596548                    
PG26 -25262.658626  -5130.983741  -6983.998728     22.843040                    
PG08 -10802.756412  11139.027341  21532.406265     -4.890554                    
PG10 -17793.779010 -11789.432850  16073.950110    -28.583389                    
PG04  -5166.583591  18643.963508 -18172.762461   -168.954184                    
PG18   1333.826710 -21403.834293  15629.026031    337.534166                    
PG23  -6751.562109 -14740.166416  21016.895652    113.741676                    
PG14  15260.340022  13404.103531  17110.255519     76.829796                    
PR09  10368.212403   7020.422912  22247.853905     16.021640                    
PR11  21143.349103 -13397.563713  -4922.705849      5.035728                    
PR20   4764.102952  19858.429707 -15242.761605   -430.098124                    
PR19  -4243.560229  24863.038204   3836.814752   -125.970344                    
PR13  -9827.080126  -7026.808225 -22483.639967    -48.690160                    
PR01  -1594.742066 -13427.474036  21622.158136     72.807354                    
PR22   9075.560949 -16589.706355 -17176.105372    -89.955034                    
PR16  -6787.753668  14443.179429  19921.133530     -9.739868                    
PR08  12063.370228  -4520.448836  22059.215855    -56.602202                    
PR03 -21515.175603  -8125.559377 -11057.993571     28.289190                    
PR07  21317.268147   7639.188160  11725.601909    -42.015863                    
PR02 -18662.228253 -16281.734868   6274.713223    460.916951                    
PR17 -10422.798322  -2219.584963  23189.600810    387.145347                    
PR14 -22097.887771   4551.545150 -11883.482027     59.321270                    
PR18  -9317.454921  15492.976003  17992.222641     61.538938                    
PR21  10433.693132   1066.521145 -23244.460612   -177.064981                    
PR05   4056.659475  14429.958223 -20627.420862     63.888174                    
PR15 -21170.581173  13216.118196   5309.667564    106.098197                    
PR12   7862.284494 -14275.348985 -19588.473291    192.782371                    
PR04 -12035.117041   4360.544735 -22045.015689     67.992306                    
PR24  -5635.754932 -19318.901220  15688.756414     26.039882                    
PE11  11063.056488  14571.040305 -23264.794894   6546.477424                    
PE12  -2759.038021  27709.028651 -10010.938804   5430.078208                    
PE19 -11059.084235  13097.850848 -24134.231214    166.687927                    
PE18  20314.438210  -4771.789617 -24957.267212  -1397.189850                    
PE14 -14083.482921   4925.465711  18070.575653  -1278.502565                    
PE26 -18151.947073   7244.081228  22244.319522   2319.415682                    
PE24  20830.831132   9262.541149  18854.279477   -664.630733                    
PE30    -82.350496 -16704.302820 -24441.644908   3300.672313                    
PE08  -8687.213804 -24808.144559  13594.600122   6069.003135                    
PE09  21351.125235  19978.788918   4641.468928   5814.619225                    
PE01 -20428.712615  14406.463802  15863.847036  -1014.914703                    
PE02  20310.583627 -14445.348740 -15950.967026    187.624251                    
PE07 -21207.229777 -20148.826137  -4497.186030   -481.628435                    
PE03   9279.730366 -15067.495008  23718.034347   -382.107443                    
PE04   8233.670996  24871.150425 -13778.867779   -679.205846                    
PE05  21600.701693   3711.290379  19889.324326   -316.766979                    
PE21 -29263.997730   4221.098386  -1517.414271   -640.271415                    
PE25  29260.743050  -4099.306016   1695.554530   -523.361179                    
PE27 -21374.843960  -8775.242811 -18505.597625     60.912378                    
PE31    952.819379  16550.019069  24531.546717   -476.955460                    
PE36  17894.499777  -6658.160313 -22606.707950    460.529389                    
PE13 -10830.769717 -14886.766079  23190.867630    409.396451                    
PE15   2620.391488 -27698.308339  10119.459214    836.527972                    
PE33 -14537.084239  24194.246567   8924.214445   -464.492751                    
PC11  -2835.974297  26592.589291   8124.275210   -854.453747                    
PC12 -12538.672756  13368.410355  21093.658154    699.932854                    
PC14  -2571.259285  16058.998281 -22662.112201   -199.753823                    
PC19  -8109.933483 -18170.757529  19579.505294    673.792790                    
PC20  11504.135320 -11987.436112  22433.588829   -909.720072                    
PC27  15677.032285  -2585.177082 -22953.098984    458.501015                    
PC28  13412.856294  17842.759761 -16743.813893   -127.464160                    
PC22 -23543.999486 -14009.844743   5239.456455   -830.478251                    
PC21 -25123.382998  -1683.677950 -12003.528813   -774.389141                    
PC29  -4365.621919 -27552.868485    771.329174    332.112637                    
PC30   8204.856439 -21374.979178 -15966.532616    424.807774                    
PC23  15485.902071   7959.038969  21807.503545   -886.601190                    
PC24 -19279.612473  19319.326535   5889.383713   -735.387285                    
PC26 -24186.994467   9221.874235 -10483.508056    961.731575                    
PC25  -1642.753355  19321.015369  20071.483052   -881.020335                    
PC32  25158.465699   1499.751000  11994.220835   -881.499917                    
PC33   8132.342210  18143.267141 -19586.432863   -893.563481                    
PC35 -13980.887425 -17627.390907  16532.202072   -487.796189                    
PC34  -7927.072285  21798.882512  15497.045629   -773.930453                    
PC36   2395.997955 -19367.001947 -19923.469377   -789.116486                    
PC37  24280.672227  -7983.335510  11187.034489   -861.458585                    
PC06  -7957.768455  33889.810858 -23057.675706     96.941031                    
PC07 -15246.146765  23365.811393  31765.016361   -182.359742                    
PC08 -23112.356603  33843.269500 -10604.075887   -847.415744                    
PC09   2894.466213  40839.364784  -8900.026128    835.318246                    
PC10    -63.325152  26676.207510  32890.595518   -112.646985                    
PC13 -11759.932087  34144.168041 -21907.238703     77.313980                    
PC16  -6379.011356  34892.069837 -22568.067087   -645.848144                    
PC38 -21133.572993  34747.095956 -11333.666091    121.030989                    
PC39  -2356.400432  36409.551155 -21017.947031     26.854003                    
PC40  -7723.370505  20941.127931  35787.288355    116.425155                    
PJ01 -26116.651610  15566.044504 -24640.220427   -335.504639                    
PJ02 -31293.977256  26018.503429  15787.581677      0.383341                    
PJ03 -25490.359361  27070.910267  24892.889315     -5.117315                    
EOF                                                                             
